{
  "type": "FeatureCollection",
  "features": [
    {
      "type": "Feature",
      "properties": {
        "norad_id": 35284,
        "name": "COSMOS 2251 DEB",
        "group": "cosmos-2251-debris",
        "lat": -73.46096970796533,
        "lon": 164.94335991037877,
        "alt_km": 761.4683266024613,
        "timestamp": "2025-12-26T08:37:54.975609+00:00",
        "meta_object_name": "COSMOS 2251 DEB",
        "meta_object_id": "1993-036AJN",
        "meta_epoch": "2025-12-26T03:03:29.234880",
        "meta_mean_motion": 14.38331473,
        "meta_eccentricity": 0.0017235,
        "meta_inclination": 74.0482,
        "meta_ra_of_asc_node": 239.7743,
        "meta_arg_of_pericenter": 314.3877,
        "meta_mean_anomaly": 198.0726,
        "meta_ephemeris_type": 0,
        "meta_classification_type": "U",
        "meta_norad_cat_id": 35284,
        "meta_element_set_no": 999,
        "meta_rev_at_epoch": 65718,
        "meta_bstar": 0.00014191,
        "meta_mean_motion_dot": 4.06e-06,
        "meta_mean_motion_ddot": 0,
        "tle_line1": "1 35284U 93036AJN 25360.12742170  .00000406  00000+0  14191-3 0  9991",
        "tle_line2": "2 35284  74.0482 239.7743 0017235 314.3877 198.0726 14.38331473657182"
      },
      "geometry": {
        "type": "Point",
        "coordinates": [
          164.94335991037877,
          -73.46096970796533
        ]
      }
    },
    {
      "type": "Feature",
      "properties": {
        "norad_id": 35287,
        "name": "COSMOS 2251 DEB",
        "group": "cosmos-2251-debris",
        "lat": -4.863147191615806,
        "lon": -110.2857682754702,
        "alt_km": 760.9713558999201,
        "timestamp": "2025-12-26T08:37:54.975620+00:00",
        "meta_object_name": "COSMOS 2251 DEB",
        "meta_object_id": "1993-036AJR",
        "meta_epoch": "2025-12-24T03:52:15.182976",
        "meta_mean_motion": 14.36385545,
        "meta_eccentricity": 0.00180686,
        "meta_inclination": 74.03,
        "meta_ra_of_asc_node": 255.1485,
        "meta_arg_of_pericenter": 349.3644,
        "meta_mean_anomaly": 162.4382,
        "meta_ephemeris_type": 0,
        "meta_classification_type": "U",
        "meta_norad_cat_id": 35287,
        "meta_element_set_no": 999,
        "meta_rev_at_epoch": 87056,
        "meta_bstar": 0.00012586557,
        "meta_mean_motion_dot": 3.43e-06,
        "meta_mean_motion_ddot": 0,
        "tle_line1": "1 35287U 93036AJR 25358.16128684  .00000343  00000+0  12587-3 0  9990",
        "tle_line2": "2 35287  74.0300 255.1485 0018068 349.3644 162.4382 14.36385545870563"
      },
      "geometry": {
        "type": "Point",
        "coordinates": [
          -110.2857682754702,
          -4.863147191615806
        ]
      }
    },
    {
      "type": "Feature",
      "properties": {
        "norad_id": 35288,
        "name": "COSMOS 2251 DEB",
        "group": "cosmos-2251-debris",
        "lat": 44.64265781355864,
        "lon": 152.2970833604298,
        "alt_km": 669.5252020840126,
        "timestamp": "2025-12-26T08:37:54.975630+00:00",
        "meta_object_name": "COSMOS 2251 DEB",
        "meta_object_id": "1993-036AJS",
        "meta_epoch": "2025-12-23T06:18:10.717920",
        "meta_mean_motion": 14.65565205,
        "meta_eccentricity": 0.0039069,
        "meta_inclination": 73.9499,
        "meta_ra_of_asc_node": 354.8064,
        "meta_arg_of_pericenter": 226.8245,
        "meta_mean_anomaly": 132.9657,
        "meta_ephemeris_type": 0,
        "meta_classification_type": "U",
        "meta_norad_cat_id": 35288,
        "meta_element_set_no": 999,
        "meta_rev_at_epoch": 88032,
        "meta_bstar": 0.0011220049,
        "meta_mean_motion_dot": 6.131e-05,
        "meta_mean_motion_ddot": 0,
        "tle_line1": "1 35288U 93036AJS 25357.26262405  .00006131  00000+0  11220-2 0  9994",
        "tle_line2": "2 35288  73.9499 354.8064 0039069 226.8245 132.9657 14.65565205880328"
      },
      "geometry": {
        "type": "Point",
        "coordinates": [
          152.2970833604298,
          44.64265781355864
        ]
      }
    },
    {
      "type": "Feature",
      "properties": {
        "norad_id": 35290,
        "name": "COSMOS 2251 DEB",
        "group": "cosmos-2251-debris",
        "lat": 63.524603991944815,
        "lon": 67.6982506487724,
        "alt_km": 620.8041405757576,
        "timestamp": "2025-12-26T08:37:54.975641+00:00",
        "meta_object_name": "COSMOS 2251 DEB",
        "meta_object_id": "1993-036AJU",
        "meta_epoch": "2025-12-24T09:17:55.218624",
        "meta_mean_motion": 14.80672096,
        "meta_eccentricity": 0.00012182,
        "meta_inclination": 74.005,
        "meta_ra_of_asc_node": 36.4274,
        "meta_arg_of_pericenter": 184.9871,
        "meta_mean_anomaly": 175.1294,
        "meta_ephemeris_type": 0,
        "meta_classification_type": "U",
        "meta_norad_cat_id": 35290,
        "meta_element_set_no": 999,
        "meta_rev_at_epoch": 88130,
        "meta_bstar": 0.0018442179,
        "meta_mean_motion_dot": 0.00014174,
        "meta_mean_motion_ddot": 0,
        "tle_line1": "1 35290U 93036AJU 25358.38744466  .00014174  00000+0  18442-2 0  9992",
        "tle_line2": "2 35290  74.0050  36.4274 0001218 184.9871 175.1294 14.80672096881305"
      },
      "geometry": {
        "type": "Point",
        "coordinates": [
          67.6982506487724,
          63.524603991944815
        ]
      }
    },
    {
      "type": "Feature",
      "properties": {
        "norad_id": 35432,
        "name": "COSMOS 2251 DEB",
        "group": "cosmos-2251-debris",
        "lat": -72.9775689978088,
        "lon": -123.82781036004599,
        "alt_km": 493.583386638662,
        "timestamp": "2025-12-26T08:37:54.975651+00:00",
        "meta_object_name": "COSMOS 2251 DEB",
        "meta_object_id": "1993-036AKA",
        "meta_epoch": "2025-12-24T06:39:14.313600",
        "meta_mean_motion": 15.2444661,
        "meta_eccentricity": 0.00124517,
        "meta_inclination": 74.022,
        "meta_ra_of_asc_node": 351.1973,
        "meta_arg_of_pericenter": 322.1047,
        "meta_mean_anomaly": 37.9275,
        "meta_ephemeris_type": 0,
        "meta_classification_type": "U",
        "meta_norad_cat_id": 35432,
        "meta_element_set_no": 999,
        "meta_rev_at_epoch": 87679,
        "meta_bstar": 0.0021028798,
        "meta_mean_motion_dot": 0.0005207,
        "meta_mean_motion_ddot": 0,
        "tle_line1": "1 35432U 93036AKA 25358.27724900  .00052070  00000+0  21029-2 0  9991",
        "tle_line2": "2 35432  74.0220 351.1973 0012451 322.1047  37.9275 15.24446610876798"
      },
      "geometry": {
        "type": "Point",
        "coordinates": [
          -123.82781036004599,
          -72.9775689978088
        ]
      }
    },
    {
      "type": "Feature",
      "properties": {
        "norad_id": 35433,
        "name": "COSMOS 2251 DEB",
        "group": "cosmos-2251-debris",
        "lat": 32.25192654382031,
        "lon": -36.09190015056418,
        "alt_km": 757.5890035029488,
        "timestamp": "2025-12-26T08:37:54.975661+00:00",
        "meta_object_name": "COSMOS 2251 DEB",
        "meta_object_id": "1993-036AKB",
        "meta_epoch": "2025-12-10T18:27:52.031808",
        "meta_mean_motion": 14.34742553,
        "meta_eccentricity": 0.00254013,
        "meta_inclination": 74.0339,
        "meta_ra_of_asc_node": 342.0559,
        "meta_arg_of_pericenter": 37.4572,
        "meta_mean_anomaly": 142.4072,
        "meta_ephemeris_type": 0,
        "meta_classification_type": "U",
        "meta_norad_cat_id": 35433,
        "meta_element_set_no": 999,
        "meta_rev_at_epoch": 86552,
        "meta_bstar": 0.00041847558,
        "meta_mean_motion_dot": 1.164e-05,
        "meta_mean_motion_ddot": 0,
        "tle_line1": "1 35433U 93036AKB 25344.76935222  .00001164  00000+0  41848-3 0  9992",
        "tle_line2": "2 35433  74.0339 342.0559 0025401  37.4572 142.4072 14.34742553865528"
      },
      "geometry": {
        "type": "Point",
        "coordinates": [
          -36.09190015056418,
          32.25192654382031
        ]
      }
    },
    {
      "type": "Feature",
      "properties": {
        "norad_id": 35434,
        "name": "COSMOS 2251 DEB",
        "group": "cosmos-2251-debris",
        "lat": -42.40089691426699,
        "lon": 24.19296996342035,
        "alt_km": 759.202898260206,
        "timestamp": "2025-12-26T08:37:54.975671+00:00",
        "meta_object_name": "COSMOS 2251 DEB",
        "meta_object_id": "1993-036AKC",
        "meta_epoch": "2025-12-23T05:28:40.876896",
        "meta_mean_motion": 14.25716012,
        "meta_eccentricity": 0.00872798,
        "meta_inclination": 74.0389,
        "meta_ra_of_asc_node": 194.6941,
        "meta_arg_of_pericenter": 263.2384,
        "meta_mean_anomaly": 95.8825,
        "meta_ephemeris_type": 0,
        "meta_classification_type": "U",
        "meta_norad_cat_id": 35434,
        "meta_element_set_no": 999,
        "meta_rev_at_epoch": 86267,
        "meta_bstar": 0.00051853095,
        "meta_mean_motion_dot": 1.255e-05,
        "meta_mean_motion_ddot": 0,
        "tle_line1": "1 35434U 93036AKC 25357.22825089  .00001255  00000+0  51853-3 0  9995",
        "tle_line2": "2 35434  74.0389 194.6941 0087279 263.2384  95.8825 14.25716012862672"
      },
      "geometry": {
        "type": "Point",
        "coordinates": [
          24.19296996342035,
          -42.40089691426699
        ]
      }
    }
  ]
}